start=new Date('2022-01-30T00:00:00.000Z').valueOf();
sats=[{"MEAN_MOTION_DDOT":"0.0000000000000","DECAY_DATE":null,"MEAN_ANOMALY":"288.0549","PERIOD":"95.593","INCLINATION":"53.0547","MEAN_ELEMENT_THEORY":"SGP4","PERIAPSIS":"546.219","NORAD_CAT_ID":"47739","EPHEMERIS_TYPE":"0","TLE_LINE2":"2 47739  53.0547 120.1852 0001473  72.0601 288.0549 15.06391562 51499","OBJECT_ID":"2021-017T","ELEMENT_SET_NO":"999","FILE":"3287083","BSTAR":"0.00002002000000","MEAN_MOTION":"15.06391562","OBJECT_TYPE":"PAYLOAD","TLE_LINE1":"1 47739U 21017T   22029.73406630  .00000017  00000-0  20020-4 0  9991","LAUNCH_DATE":"2021-03-04","GP_ID":"194912639","SITE":"AFETR","OBJECT_NAME":"STARLINK-2150","SEMIMAJOR_AXIS":"6925.374","REF_FRAME":"TEME","RA_OF_ASC_NODE":"120.1852","CENTER_NAME":"EARTH","TIME_SYSTEM":"UTC","ARG_OF_PERICENTER":"72.0601","RCS_SIZE":"LARGE","REV_AT_EPOCH":"5149","EPOCH":"2022-01-29T17:37:03.328320","ECCENTRICITY":"0.00014730","APOAPSIS":"548.260","CLASSIFICATION_TYPE":"U","MEAN_MOTION_DOT":"0.00000017","COUNTRY_CODE":"US"},{"MEAN_MOTION_DOT":"-0.00009414","COUNTRY_CODE":"US","EPOCH":"2022-01-29T17:09:50.036544","APOAPSIS":"547.829","ECCENTRICITY":"0.00010560","CLASSIFICATION_TYPE":"U","ARG_OF_PERICENTER":"65.4564","TIME_SYSTEM":"UTC","REV_AT_EPOCH":"5169","RCS_SIZE":"LARGE","RA_OF_ASC_NODE":"105.2731","CENTER_NAME":"EARTH","GP_ID":"194912890","LAUNCH_DATE":"2021-03-04","SITE":"AFETR","SEMIMAJOR_AXIS":"6925.233","OBJECT_NAME":"STARLINK-2152","REF_FRAME":"TEME","OBJECT_ID":"2021-017U","ELEMENT_SET_NO":"999","FILE":"3287083","BSTAR":"-0.00061328000000","TLE_LINE1":"1 47740U 21017U   22029.71516246 -.00009414  00000-0 -61328-3 0  9993","OBJECT_TYPE":"PAYLOAD","MEAN_MOTION":"15.06437812","TLE_LINE2":"2 47740  53.0542 105.2731 0001056  65.4564 294.6535 15.06437812 51696","EPHEMERIS_TYPE":"0","NORAD_CAT_ID":"47740","MEAN_MOTION_DDOT":"0.0000000000000","PERIOD":"95.590","MEAN_ANOMALY":"294.6535","DECAY_DATE":null,"PERIAPSIS":"546.366","MEAN_ELEMENT_THEORY":"SGP4","INCLINATION":"53.0542"},{"LAUNCH_DATE":"2021-03-04","GP_ID":"194914141","SITE":"AFETR","SEMIMAJOR_AXIS":"6925.351","OBJECT_NAME":"STARLINK-2154","REF_FRAME":"TEME","ELEMENT_SET_NO":"999","OBJECT_ID":"2021-017V","MEAN_MOTION":"15.06399067","OBJECT_TYPE":"PAYLOAD","TLE_LINE1":"1 47741U 21017V   22029.59721483  .00002326  00000-0  17500-3 0  9997","BSTAR":"0.00017500000000","FILE":"3287083","NORAD_CAT_ID":"47741","TLE_LINE2":"2 47741  53.0550 105.8040 0001455  72.1112 288.0035 15.06399067 51637","EPHEMERIS_TYPE":"0","MEAN_MOTION_DDOT":"0.0000000000000","INCLINATION":"53.0550","MEAN_ELEMENT_THEORY":"SGP4","PERIAPSIS":"546.209","DECAY_DATE":null,"MEAN_ANOMALY":"288.0035","PERIOD":"95.592","MEAN_MOTION_DOT":"0.00002326","COUNTRY_CODE":"US","EPOCH":"2022-01-29T14:19:59.361312","CLASSIFICATION_TYPE":"U","APOAPSIS":"548.224","ECCENTRICITY":"0.00014550","RCS_SIZE":"LARGE","REV_AT_EPOCH":"5163","TIME_SYSTEM":"UTC","ARG_OF_PERICENTER":"72.1112","CENTER_NAME":"EARTH","RA_OF_ASC_NODE":"105.8040"},{"CENTER_NAME":"EARTH","RA_OF_ASC_NODE":"94.5658","RCS_SIZE":"LARGE","REV_AT_EPOCH":"5186","TIME_SYSTEM":"UTC","ARG_OF_PERICENTER":"77.6148","EPOCH":"2022-01-29T20:59:23.730144","CLASSIFICATION_TYPE":"U","ECCENTRICITY":"0.00014740","APOAPSIS":"548.228","MEAN_MOTION_DOT":"0.00000774","COUNTRY_CODE":"US","MEAN_MOTION_DDOT":"0.0000000000000","INCLINATION":"53.0555","PERIAPSIS":"546.187","MEAN_ELEMENT_THEORY":"SGP4","DECAY_DATE":null,"PERIOD":"95.592","MEAN_ANOMALY":"282.5005","NORAD_CAT_ID":"47742","EPHEMERIS_TYPE":"0","TLE_LINE2":"2 47742  53.0555  94.5658 0001474  77.6148 282.5005 15.06402038 51866","ELEMENT_SET_NO":"999","OBJECT_ID":"2021-017W","MEAN_MOTION":"15.06402038","OBJECT_TYPE":"PAYLOAD","TLE_LINE1":"1 47742U 21017W   22029.87458021  .00000774  00000-0  70842-4 0  9998","FILE":"3287083","BSTAR":"0.00007084200000","LAUNCH_DATE":"2021-03-04","GP_ID":"194913892","SITE":"AFETR","OBJECT_NAME":"STARLINK-2156","SEMIMAJOR_AXIS":"6925.342","REF_FRAME":"TEME"},{"DECAY_DATE":null,"MEAN_ANOMALY":"291.2469","PERIOD":"95.592","INCLINATION":"53.0555","MEAN_ELEMENT_THEORY":"SGP4","PERIAPSIS":"546.180","MEAN_MOTION_DDOT":"0.0000000000000","NORAD_CAT_ID":"47743","TLE_LINE2":"2 47743  53.0555  94.4317 0001498  68.8680 291.2469 15.06398888 51843","EPHEMERIS_TYPE":"0","FILE":"3287083","BSTAR":"0.00008277700000","OBJECT_TYPE":"PAYLOAD","MEAN_MOTION":"15.06398888","TLE_LINE1":"1 47743U 21017X   22029.90038674  .00000952  00000-0  82777-4 0  9999","OBJECT_ID":"2021-017X","ELEMENT_SET_NO":"999","SITE":"AFETR","SEMIMAJOR_AXIS":"6925.352","OBJECT_NAME":"STARLINK-2157","REF_FRAME":"TEME","LAUNCH_DATE":"2021-03-04","GP_ID":"194913139","RA_OF_ASC_NODE":"94.4317","CENTER_NAME":"EARTH","TIME_SYSTEM":"UTC","ARG_OF_PERICENTER":"68.8680","RCS_SIZE":"LARGE","REV_AT_EPOCH":"5184","ECCENTRICITY":"0.00014980","APOAPSIS":"548.254","CLASSIFICATION_TYPE":"U","EPOCH":"2022-01-29T21:36:33.414336","COUNTRY_CODE":"US","MEAN_MOTION_DOT":"0.00000952"},{"COUNTRY_CODE":"US","MEAN_MOTION_DOT":"0.00002394","CLASSIFICATION_TYPE":"U","ECCENTRICITY":"0.00014400","APOAPSIS":"548.190","EPOCH":"2022-01-29T21:04:42.119328","REV_AT_EPOCH":"5186","RCS_SIZE":"LARGE","ARG_OF_PERICENTER":"66.8464","TIME_SYSTEM":"UTC","CENTER_NAME":"EARTH","RA_OF_ASC_NODE":"94.5436","SEMIMAJOR_AXIS":"6925.327","SITE":"AFETR","REF_FRAME":"TEME","OBJECT_NAME":"STARLINK-2158","GP_ID":"194913390","LAUNCH_DATE":"2021-03-04","TLE_LINE1":"1 47744U 21017Y   22029.87826527  .00002394  00000-0  17955-3 0  9995","MEAN_MOTION":"15.06406895","OBJECT_TYPE":"PAYLOAD","FILE":"3287083","BSTAR":"0.00017955000000","ELEMENT_SET_NO":"999","OBJECT_ID":"2021-017Y","TLE_LINE2":"2 47744  53.0551  94.5436 0001440  66.8464 293.2677 15.06406895 51861","EPHEMERIS_TYPE":"0","NORAD_CAT_ID":"47744","PERIAPSIS":"546.195","MEAN_ELEMENT_THEORY":"SGP4","INCLINATION":"53.0551","MEAN_ANOMALY":"293.2677","PERIOD":"95.592","DECAY_DATE":null,"MEAN_MOTION_DDOT":"0.0000000000000"},{"REV_AT_EPOCH":"5167","RCS_SIZE":"LARGE","ARG_OF_PERICENTER":"74.2997","TIME_SYSTEM":"UTC","CENTER_NAME":"EARTH","RA_OF_ASC_NODE":"104.4198","MEAN_MOTION_DOT":"0.00001768","COUNTRY_CODE":"US","EPOCH":"2022-01-29T21:45:51.312096","CLASSIFICATION_TYPE":"U","APOAPSIS":"548.253","ECCENTRICITY":"0.00014730","TLE_LINE2":"2 47745  53.0547 104.4198 0001473  74.2997 285.8155 15.06393714 51675","EPHEMERIS_TYPE":"0","NORAD_CAT_ID":"47745","MEAN_MOTION_DDOT":"0.0000000000000","PERIAPSIS":"546.213","MEAN_ELEMENT_THEORY":"SGP4","INCLINATION":"53.0547","PERIOD":"95.593","MEAN_ANOMALY":"285.8155","DECAY_DATE":null,"GP_ID":"194913642","LAUNCH_DATE":"2021-03-04","REF_FRAME":"TEME","SITE":"AFETR","SEMIMAJOR_AXIS":"6925.368","OBJECT_NAME":"STARLINK-2159","ELEMENT_SET_NO":"999","OBJECT_ID":"2021-017Z","TLE_LINE1":"1 47745U 21017Z   22029.90684389  .00001768  00000-0  13761-3 0  9993","MEAN_MOTION":"15.06393714","OBJECT_TYPE":"PAYLOAD","FILE":"3287083","BSTAR":"0.00013761000000"},{"SEMIMAJOR_AXIS":"6925.344","SITE":"AFETR","REF_FRAME":"TEME","OBJECT_NAME":"STARLINK-2160","GP_ID":"194914392","LAUNCH_DATE":"2021-03-04","BSTAR":"0.00010273000000","FILE":"3287083","TLE_LINE1":"1 47746U 21017AA  22029.89945745  .00001249  00000-0  10273-3 0  9997","MEAN_MOTION":"15.06401645","OBJECT_TYPE":"PAYLOAD","OBJECT_ID":"2021-017AA","ELEMENT_SET_NO":"999","TLE_LINE2":"2 47746  53.0545 104.4303 0001578  68.8141 291.3017 15.06401645 51669","EPHEMERIS_TYPE":"0","NORAD_CAT_ID":"47746","MEAN_ANOMALY":"291.3017","PERIOD":"95.592","DECAY_DATE":null,"PERIAPSIS":"546.116","MEAN_ELEMENT_THEORY":"SGP4","INCLINATION":"53.0545","MEAN_MOTION_DDOT":"0.0000000000000","COUNTRY_CODE":"US","MEAN_MOTION_DOT":"0.00001249","APOAPSIS":"548.301","ECCENTRICITY":"0.00015780","CLASSIFICATION_TYPE":"U","EPOCH":"2022-01-29T21:35:13.123680","ARG_OF_PERICENTER":"68.8141","TIME_SYSTEM":"UTC","REV_AT_EPOCH":"5166","RCS_SIZE":"LARGE","RA_OF_ASC_NODE":"104.4303","CENTER_NAME":"EARTH"},{"ECCENTRICITY":"0.00014650","APOAPSIS":"548.207","CLASSIFICATION_TYPE":"U","EPOCH":"2022-01-29T21:31:14.714976","COUNTRY_CODE":"US","MEAN_MOTION_DOT":"0.00002240","RA_OF_ASC_NODE":"94.4615","CENTER_NAME":"EARTH","ARG_OF_PERICENTER":"72.0708","TIME_SYSTEM":"UTC","REV_AT_EPOCH":"5184","RCS_SIZE":"LARGE","BSTAR":"0.00016917000000","FILE":"3287083","TLE_LINE1":"1 47747U 21017AB  22029.89669809  .00002240  00000-0  16917-3 0  9995","OBJECT_TYPE":"PAYLOAD","MEAN_MOTION":"15.06406995","OBJECT_ID":"2021-017AB","ELEMENT_SET_NO":"999","SEMIMAJOR_AXIS":"6925.327","SITE":"AFETR","REF_FRAME":"TEME","OBJECT_NAME":"STARLINK-2161","GP_ID":"194912640","LAUNCH_DATE":"2021-03-04","PERIOD":"95.592","MEAN_ANOMALY":"288.0441","DECAY_DATE":null,"MEAN_ELEMENT_THEORY":"SGP4","PERIAPSIS":"546.178","INCLINATION":"53.0554","MEAN_MOTION_DDOT":"0.0000000000000","TLE_LINE2":"2 47747  53.0554  94.4615 0001465  72.0708 288.0441 15.06406995 51842","EPHEMERIS_TYPE":"0","NORAD_CAT_ID":"47747"},{"REV_AT_EPOCH":"5176","RCS_SIZE":"LARGE","ARG_OF_PERICENTER":"65.3973","TIME_SYSTEM":"UTC","CENTER_NAME":"EARTH","RA_OF_ASC_NODE":"95.9860","COUNTRY_CODE":"US","MEAN_MOTION_DOT":"-0.00001209","CLASSIFICATION_TYPE":"U","ECCENTRICITY":"0.00011860","APOAPSIS":"547.989","EPOCH":"2022-01-29T13:22:55.649856","TLE_LINE2":"2 47748  53.0554  95.9860 0001186  65.3973 294.7139 15.06415024 51762","EPHEMERIS_TYPE":"0","NORAD_CAT_ID":"47748","MEAN_ELEMENT_THEORY":"SGP4","PERIAPSIS":"546.346","INCLINATION":"53.0554","MEAN_ANOMALY":"294.7139","PERIOD":"95.591","DECAY_DATE":null,"MEAN_MOTION_DDOT":"0.0000000000000","SEMIMAJOR_AXIS":"6925.303","SITE":"AFETR","OBJECT_NAME":"STARLINK-2162","REF_FRAME":"TEME","GP_ID":"194912891","LAUNCH_DATE":"2021-03-04","TLE_LINE1":"1 47748U 21017AC  22029.55758854 -.00001209  00000-0 -62291-4 0  9991","OBJECT_TYPE":"PAYLOAD","MEAN_MOTION":"15.06415024","FILE":"3287083","BSTAR":"-0.00006229100000","ELEMENT_SET_NO":"999","OBJECT_ID":"2021-017AC"}];
